BEESAT-4                
1 41619U 16040W   22255.11003158  .00016675  00000+0  52190-3 0  9991
2 41619  97.2081 303.5063 0009938 157.2194 202.9491 15.33138301333990
CAS-2T & KS-1Q          
1 41847U 16066G   22255.62695343  .00000549  00000+0  93199-4 0  9999
2 41847  98.5434 320.1750 0362464 309.2223  47.7299 14.38717707306881
NAYIF-1 (EO-88)         
1 42017U 17008BX  22255.41535277  .00021152  00000+0  58505-3 0  9996
2 42017  97.2609 320.3757 0003046 297.5261  62.5674 15.37032163310422
ZHUHAI-1 02 (CAS-4B)    
1 42759U 17034B   22255.95907340  .00003820  00000+0  22866-3 0  9994
2 42759  43.0159 210.1801 0008044 122.3787 286.3419 15.12415751289600
ZHUHAI-1 01 (CAS-4A)    
1 42761U 17034D   22255.86648725  .00004059  00000+0  24155-3 0  9994
2 42761  43.0161 209.4143 0008306 121.3877 334.9156 15.12502048289598
MAX VALIER SAT          
1 42778U 17036P   22255.83841105  .00009611  00000+0  35200-3 0  9990
2 42778  97.1976 293.9706 0010972  26.0595 334.1195 15.28164164290242
RADFXSAT (FOX-1B)       
1 43017U 17073E   22255.21848702  .00003402  00000+0  25876-3 0  9990
2 43017  97.6619 145.8445 0245167 263.5683  93.7564 14.81970493259965
FOX-1D (AO-92)          
1 43137U 18004AC  22255.20622067  .00012282  00000+0  41466-3 0  9990
2 43137  97.3630 329.6376 0008605  61.9265 298.2845 15.30788391259618
DIWATA-2B               
1 43678U 18084H   22255.88910337  .00001237  00000+0  12685-3 0  9991
2 43678  97.9830  30.2444 0010024   5.4050 354.7256 14.92296587210899
ES'HAIL 2               
1 43700U 18090A   22254.82465376  .00000126  00000+0  00000+0 0  9995
2 43700   0.0105 140.2893 0002337  71.0993 102.0822  1.00271436 13893
FOX-1CLIFF (AO-95)      
1 43770U 18099N   22255.64118741  .00002834  00000+0  25224-3 0  9990
2 43770  97.6128 319.7138 0013547 348.1389  11.9511 14.96775490206057
ITASAT 1                
1 43786U 18099AE  22255.82784776  .00001792  00000+0  16092-3 0  9999
2 43786  97.6161 320.8602 0014250 340.6883  19.3797 14.96879046206126
JY1SAT (JO-97)          
1 43803U 18099AX  22255.61408016  .00003059  00000+0  26717-3 0  9999
2 43803  97.6134 320.4349 0013876 341.9932  18.0797 14.97456486206117
UWE-4                   
1 43880U 18111E   22255.21693451  .00004008  00000+0  33908-3 0  9999
2 43880  97.6587 159.9985 0012745  38.6181 321.5950 14.98538201202694
NEXUS (FO-99)           
1 43937U 19003F   22255.52152694  .00016019  00000+0  50988-3 0  9998
2 43937  97.1242 285.5621 0019281 196.0991 163.9641 15.32471487203308
PSAT2 (NO-104)          
1 44354U 19036R   22255.46227501  .00103338 -40985-5  78978-3 0  9994
2 44354  28.5244 291.3099 0199480 237.5735 120.5428 15.48681686178138
JAISAT-1                
1 44419U 19038F   22255.45499605  .00010420  00000+0  50668-3 0  9995
2 44419  97.6446 226.3859 0018575 183.9451 176.1640 15.18457681176254
DUCHIFAT-3              
1 44854U 19089C   22255.52602631  .00003707  00000+0  28660-3 0  9994
2 44854  36.9668 303.9602 0008006 215.5553 287.9528 15.01549812151024
CAS-6 (TIANQIN 1)       
1 44881U 19093C   22255.95983861  .00000525  00000+0  73105-4 0  9993
2 44881  97.8887 333.8991 0013581 261.6948  98.2704 14.81808523147736
RS-44 & BREEZE-KM R/B   
1 44909U 19096E   22255.28650103  .00000036  00000+0  90377-4 0  9990
2 44909  82.5252 172.5991 0218251 116.5535 245.8118 12.79714723126619
ORBITAL FACTORY 2 (OF-2)
1 45113U 19071C   22255.87890017  .00040230  00000+0  71975-3 0  9998
2 45113  51.6381 347.9431 0007667 127.7716 232.3968 15.49557659146918
HUSKYSAT-1 (HO-107)     
1 45119U 19071J   22255.82159711  .00034077  00000+0  64362-3 0  9992
2 45119  51.6380 349.0280 0007936 123.9445 236.2298 15.48084492146888
BY70-2                  
1 45857U 20042B   22255.96447452  .00006817  00000+0  89202-3 0  9999
2 45857  97.9516 332.0073 0010571 185.3916 174.7179 14.80688968118401
SALSAT                  
1 46495U 20068K   22255.81238026  .00002439  00000+0  17674-3 0  9995
2 46495  97.7333 197.1762 0016007 347.8220  12.2616 15.04821421107324
BY70-3                  
1 46839U 20079N   22255.89444403  .00029332  00000+0  61420-3 0  9994
2 46839  97.1916 327.0099 0005196  30.2249  82.8107 15.45382295103730
RADFXSAT-2 (AO-109)     
1 47311U 21002C   22255.81667022  .00011191  00000+0  42975-3 0  9991
2 47311  60.6863  33.0822 0031521  36.0057 324.3147 15.26489167 91797
UVSQ-SAT                
1 47438U 21006AB  22255.59852097  .00007128  00000+0  36840-3 0  9997
2 47438  97.4290 312.8310 0010824 339.8940  20.1865 15.16528320 90484
DIY-1 (ARDUIQUBE)       
1 47963U 21022AH  22255.22378409  .00019845  00000+0  10401-2 0  9991
2 47963  97.5216 155.6708 0015520 184.7570 175.3518 15.15714212 80083
XW-3 (CAS-9)            
1 50466U 21131B   22255.88263582  .00000224  00000+0  87919-4 0  9992
2 50466  98.5761 333.0777 0003640 237.8764 122.2070 14.38522524 37481
TEVEL-3                 
1 50988U 22002E   22255.89085249  .00007560  00000+0  40349-3 0  9997
2 50988  97.4745 321.4360 0010870 118.3699 354.0212 15.15371678 36651
TEVEL-8                 
1 50989U 22002F   22255.89449578  .00007689  00000+0  41092-3 0  9995
2 50989  97.4764 321.4678 0010985 117.0696 330.8562 15.15319528 36651
TEVEL-5                 
1 50998U 22002Q   22255.88441822  .00007812  00000+0  41083-3 0  9996
2 50998  97.4741 321.5734 0012339 113.9826   2.6328 15.15871044 36666
TEVEL-6                 
1 50999U 22002R   22255.88381640  .00007809  00000+0  41059-3 0  9997
2 50999  97.4737 321.5710 0012202 113.9386   2.6733 15.15876114 36669
TEVEL-1                 
1 51013U 22002AF  22255.89410793  .00007635  00000+0  40775-3 0  9999
2 51013  97.4748 321.4159 0010842 118.2833 351.9236 15.15345700 36657
TEVEL-7                 
1 51062U 22002CG  22255.89617427  .00007737  00000+0  41353-3 0  9992
2 51062  97.4761 321.4539 0010871 116.8069 330.3817 15.15312467 36655
TEVEL-4                 
1 51063U 22002CH  22255.89712159  .00007742  00000+0  41392-3 0  9990
2 51063  97.4755 321.4502 0010957 117.3287 329.7339 15.15302390 36657
TEVEL-2                 
1 51069U 22002CP  22255.89191604  .00007634  00000+0  40747-3 0  9995
2 51069  97.4747 321.4215 0010851 118.6277 351.7638 15.15365314 36653
YUZGU 9 (RS3S)          
1 53308U 98067TT  22255.55027967  .00057895  00000+0  88725-3 0  9992
2 53308  51.6397 263.1107 0000868 144.5402 215.5646 15.53760160  8285
YUZGU 7 (RS1S)          
1 53309U 98067TU  22255.74133116  .00061105  00000+0  93105-3 0  9995
2 53309  51.6393 262.1357 0000543 220.5821 139.5129 15.53895934  8265
YUZGU 11 (RS5S)         
1 53310U 98067TV  22255.74290174  .00059752  00000+0  91489-3 0  9993
2 53310  51.6397 262.1484 0000320 220.8437 139.2529 15.53771310  8296
YUZGU 12 (RS6S)         
1 53311U 98067TW  22255.73767665  .00065140  00000+0  98560-3 0  9992
2 53311  51.6390 262.1108 0001203 122.1774 237.9334 15.54061763  8310
TSIOLKOVSKY-RYAZAN 1 (*)
1 53312U 98067TX  22255.61092492  .00057697  00000+0  87932-3 0  9998
2 53312  51.6397 262.7653 0000722 235.1615 124.9308 15.53914395  8237
TSIOLKOVSKY-RYAZAN 2 (*)
1 53313U 98067TY  22255.73813295  .00061379  00000+0  93270-3 0  9998
2 53313  51.6395 262.1158 0000323 279.2258  80.8696 15.53968355  8302
YUZGU 10 (RS4S)         
1 53321U 98067TZ  22255.55065229  .00060061  00000+0  91898-3 0  9994
2 53321  51.6400 263.1153 0000592 158.6346 201.4669 15.53788388  8273
RS29S (SXC3-2110 CYCLO*)
1 53373U 22096D   22255.90405109  .00010159  00000+0  41115-3 0  9994
2 53373  97.4329 157.1135 0003722  77.3487 346.3778 15.24883835  5279
RS32S (SXC3-212 MONITO*)
1 53374U 22096E   22255.90143957  .00010322  00000+0  41633-3 0  9992
2 53374  97.4324 157.1164 0003697  67.7065 355.0006 15.24995362  5273
RS34S (SXC3-218 KUZBAS*)
1 53375U 22096F   22255.91422722  .00008914  00000+0  36037-3 0  9990
2 53375  97.4328 157.1289 0003613  69.9394  63.0982 15.24959274  5274
RS23S (SXC3-21 UTMN)    
1 53376U 22096G   22255.90067645  .00007977  00000+0  32263-3 0  9994
2 53376  97.4331 157.1176 0003511  67.5338 355.5386 15.24979493  5275
RS28S (SXC3-214 MIET-A*)
1 53377U 22096H   22255.83155412  .00008591  00000+0  34681-3 0  9996
2 53377  97.4326 157.0503 0003622  65.1840 342.2781 15.25018144  5267
RS26S (KAI-1)           
1 53378U 22096J   22255.89932716  .00007540  00000+0  30481-3 0  9990
2 53378  97.4322 157.1183 0003284  62.8709 359.5996 15.25016315  5279
RS19S (SXC3-219 ISOI)   
1 53381U 22096M   22255.95433075  .00008247  00000+0  32871-3 0  9995
2 53381  97.4330 157.1953 0003980   0.1953  55.8403 15.25459487  5287
RS21S (CUBESX-HSE-2)    
1 53383U 22096P   22255.82452593  .00008265  00000+0  32892-3 0  9992
2 53383  97.4328 157.0697 0004097 359.2720  71.6842 15.25510293  5264
RS30S (SXC3-217 SIREN)  
1 53384U 22096Q   22255.82479075  .00007801  00000+0  31061-3 0  9999
2 53384  97.4330 157.0698 0004105 357.0098  77.4570 15.25512915  5268
RS20S (GEOSCAN-EDELVEIS)
1 53385U 22096R   22255.82264632  .00010562  00000+0  41622-3 0  9993
2 53385  97.4324 157.0763 0004572 355.8319  88.9663 15.25763519  5296
RS33S (SXC3-215 VIZARD) 
1 53386U 22096S   22255.87905340  .00012851  00000+0  50118-3 0  9990
2 53386  97.4333 157.1467 0005143 353.4630  70.7790 15.26058955  5296
